{"type": "FeatureCollection", "features": [{"type": "Feature", "properties": {"名称": "東小学校", "住所": "大阪府寝屋川市太秦元町2-1", "電話番号": "(072)825-9001"}, "geometry": {"type": "Point", "coordinates": [135.633824, 34.761385]}}, {"type": "Feature", "properties": {"名称": "第一中学校", "住所": "大阪府寝屋川市高宮新町32-1", "電話番号": "(072)825-9000"}, "geometry": {"type": "Point", "coordinates": [135.63165, 34.762332]}}, {"type": "Feature", "properties": {"名称": "市民会館", "住所": "大阪府寝屋川市秦町41-1", "電話番号": "(072)823-1221"}, "geometry": {"type": "Point", "coordinates": [135.631447, 34.762878]}}, {"type": "Feature", "properties": {"名称": "東コミュニティセンター", "住所": "大阪府寝屋川市高宮新町32-2", "電話番号": "(072)820-2281"}, "geometry": {"type": "Point", "coordinates": [135.631277, 34.761352]}}, {"type": "Feature", "properties": {"名称": "中央小学校", "住所": "大阪府寝屋川市初町1-25", "電話番号": "(072)825-9002"}, "geometry": {"type": "Point", "coordinates": [135.625747, 34.763785]}}, {"type": "Feature", "properties": {"名称": "産業振興センター", "住所": "大阪府寝屋川市東大利町2-14", "電話番号": "(072)828-0751"}, "geometry": {"type": "Point", "coordinates": [135.617936, 34.76258]}}, {"type": "Feature", "properties": {"名称": "西小学校", "住所": "大阪府寝屋川市高柳5-24-1", "電話番号": "(072)827-0231"}, "geometry": {"type": "Point", "coordinates": [135.607421, 34.763073]}}, {"type": "Feature", "properties": {"名称": "第二中学校", "住所": "大阪府寝屋川市池田西町4-15", "電話番号": "(072)827-0180"}, "geometry": {"type": "Point", "coordinates": [135.610537, 34.774431]}}, {"type": "Feature", "properties": {"名称": "池田小学校", "住所": "大阪府寝屋川市池田2-10-23", "電話番号": "(072)827-0361"}, "geometry": {"type": "Point", "coordinates": [135.615277, 34.776685]}}, {"type": "Feature", "properties": {"名称": "池田すみれこども園", "住所": "大阪府寝屋川市池田旭町17-7", "電話番号": "(072)827-1331"}, "geometry": {"type": "Point", "coordinates": [135.61361, 34.776104]}}, {"type": "Feature", "properties": {"名称": "市立池の里市民交流センター", "住所": "大阪府寝屋川市池田西町24-5", "電話番号": "(072)838-0199"}, "geometry": {"type": "Point", "coordinates": [135.606232, 34.775837]}}, {"type": "Feature", "properties": {"名称": "桜小学校", "住所": "大阪府寝屋川市池田西町24-5", "電話番号": "(072)838-0300"}, "geometry": {"type": "Point", "coordinates": [135.606232, 34.775837]}}, {"type": "Feature", "properties": {"名称": "北小学校", "住所": "大阪府寝屋川市寿町56-1", "電話番号": "(072)832-3331"}, "geometry": {"type": "Point", "coordinates": [135.62534, 34.780196]}}, {"type": "Feature", "properties": {"名称": "第三中学校", "住所": "大阪府寝屋川市田井町16-16", "電話番号": "(072)832-3401"}, "geometry": {"type": "Point", "coordinates": [135.63294, 34.779261]}}, {"type": "Feature", "properties": {"名称": "田井小学校", "住所": "大阪府寝屋川市田井西町15-1", "電話番号": "(072)833-2801"}, "geometry": {"type": "Point", "coordinates": [135.62939, 34.777033]}}, {"type": "Feature", "properties": {"名称": "第五中学校", "住所": "大阪府寝屋川市上神田2-10-1", "電話番号": "(072)829-2161"}, "geometry": {"type": "Point", "coordinates": [135.605389, 34.75056]}}, {"type": "Feature", "properties": {"名称": "南小学校", "住所": "大阪府寝屋川市下神田町38-1", "電話番号": "(072)827-5111"}, "geometry": {"type": "Point", "coordinates": [135.601569, 34.75073]}}, {"type": "Feature", "properties": {"名称": "神田小学校", "住所": "大阪府寝屋川市東神田町22-1", "電話番号": "(072)829-0731"}, "geometry": {"type": "Point", "coordinates": [135.610537, 34.753381]}}, {"type": "Feature", "properties": {"名称": "和光小学校", "住所": "大阪府寝屋川市黒原橘町18-1", "電話番号": "(072)829-6121"}, "geometry": {"type": "Point", "coordinates": [135.608331, 34.745671]}}, {"type": "Feature", "properties": {"名称": "啓明小学校", "住所": "大阪府寝屋川市高柳6-12-1", "電話番号": "(072)829-5501"}, "geometry": {"type": "Point", "coordinates": [135.602698, 34.760171]}}, {"type": "Feature", "properties": {"名称": "第九中学校", "住所": "大阪府寝屋川市高柳6-12-2", "電話番号": "(072)829-5601"}, "geometry": {"type": "Point", "coordinates": [135.60334, 34.759495]}}, {"type": "Feature", "properties": {"名称": "教育センター", "住所": "大阪府寝屋川市高柳6-12-3", "電話番号": "(072)839-8611"}, "geometry": {"type": "Point", "coordinates": [135.602564, 34.759452]}}, {"type": "Feature", "properties": {"名称": "エスポアール", "住所": "大阪府寝屋川市錦町21-3", "電話番号": "(072)828-4141"}, "geometry": {"type": "Point", "coordinates": [135.620076, 34.755498]}}, {"type": "Feature", "properties": {"名称": "成美小学校", "住所": "大阪府寝屋川市錦町22-1", "電話番号": "(072)828-4031"}, "geometry": {"type": "Point", "coordinates": [135.621404, 34.756184]}}, {"type": "Feature", "properties": {"名称": "南コミュニティセンター", "住所": "大阪府寝屋川市下木田町16-15", "電話番号": "(072)823-7181"}, "geometry": {"type": "Point", "coordinates": [135.622415, 34.74795]}}, {"type": "Feature", "properties": {"名称": "第七中学校", "住所": "大阪府寝屋川市讃良西町1-1", "電話番号": "(072)823-7171"}, "geometry": {"type": "Point", "coordinates": [135.622879, 34.746051]}}, {"type": "Feature", "properties": {"名称": "堀溝小学校", "住所": "大阪府寝屋川市堀溝2-8-15", "電話番号": "(072)823-7141"}, "geometry": {"type": "Point", "coordinates": [135.626889, 34.742352]}}, {"type": "Feature", "properties": {"名称": "第四中学校", "住所": "大阪府寝屋川市打上南町1-1", "電話番号": "(072)823-1451"}, "geometry": {"type": "Point", "coordinates": [135.647703, 34.758957]}}, {"type": "Feature", "properties": {"名称": "明和小学校", "住所": "大阪府寝屋川市打上新町20-1", "電話番号": "(072)823-0101"}, "geometry": {"type": "Point", "coordinates": [135.651717, 34.758838]}}, {"type": "Feature", "properties": {"名称": "梅が丘小学校", "住所": "大阪府寝屋川市梅が丘1-1-1", "電話番号": "(072)823-0141"}, "geometry": {"type": "Point", "coordinates": [135.644485, 34.75127]}}, {"type": "Feature", "properties": {"名称": "西北コミュニティセンター", "住所": "大阪府寝屋川市松屋町22-12", "電話番号": "(072)834-3011"}, "geometry": {"type": "Point", "coordinates": [135.617631, 34.783177]}}, {"type": "Feature", "properties": {"名称": "松屋テニスコート", "住所": "大阪府寝屋川市松屋町19", "電話番号": "(072)831-2977"}, "geometry": {"type": "Point", "coordinates": [135.618625, 34.784535]}}, {"type": "Feature", "properties": {"名称": "点野小学校", "住所": "大阪府寝屋川市点野5-28-1", "電話番号": "(072)827-7751"}, "geometry": {"type": "Point", "coordinates": [135.601955, 34.773809]}}, {"type": "Feature", "properties": {"名称": "第八中学校", "住所": "大阪府寝屋川市点野5-28-2", "電話番号": "(072)827-7761"}, "geometry": {"type": "Point", "coordinates": [135.603378, 34.773831]}}, {"type": "Feature", "properties": {"名称": "西コミュニティセンター", "住所": "大阪府寝屋川市奥坂1-6", "電話番号": "(072)838-8422"}, "geometry": {"type": "Point", "coordinates": [135.603058, 34.774438]}}, {"type": "Feature", "properties": {"名称": "第六中学校", "住所": "大阪府寝屋川市成田町12-1", "電話番号": "(072)833-8801"}, "geometry": {"type": "Point", "coordinates": [135.640167, 34.774465]}}, {"type": "Feature", "properties": {"名称": "北コミュニティセンター", "住所": "大阪府寝屋川市成田町33-12", "電話番号": "(072)833-8848"}, "geometry": {"type": "Point", "coordinates": [135.635817, 34.782845]}}, {"type": "Feature", "properties": {"名称": "第五小学校", "住所": "大阪府寝屋川市成田西町2-1", "電話番号": "(072)831-0531"}, "geometry": {"type": "Point", "coordinates": [135.633816, 34.770932]}}, {"type": "Feature", "properties": {"名称": "東北コミュニティセンター", "住所": "大阪府寝屋川市成田西町2-6", "電話番号": "(072)832-6011"}, "geometry": {"type": "Point", "coordinates": [135.633802, 34.770284]}}, {"type": "Feature", "properties": {"名称": "三井小学校", "住所": "大阪府寝屋川市三井が丘3-5-1", "電話番号": "(072)831-0171"}, "geometry": {"type": "Point", "coordinates": [135.636906, 34.782069]}}, {"type": "Feature", "properties": {"名称": "第十中学校", "住所": "大阪府寝屋川市三井が丘3-5-2", "電話番号": "(072)831-0271"}, "geometry": {"type": "Point", "coordinates": [135.636402, 34.783063]}}, {"type": "Feature", "properties": {"名称": "国松緑丘小学校", "住所": "大阪府寝屋川市国松町27-1", "電話番号": "(072)823-1401"}, "geometry": {"type": "Point", "coordinates": [135.641687, 34.763486]}}, {"type": "Feature", "properties": {"名称": "宇谷小学校", "住所": "大阪府寝屋川市宇谷町6-1", "電話番号": "(072)823-7101"}, "geometry": {"type": "Point", "coordinates": [135.656914, 34.761921]}}, {"type": "Feature", "properties": {"名称": "楠根小学校", "住所": "大阪府寝屋川市楠根南町21-1", "電話番号": "(072)823-1431"}, "geometry": {"type": "Point", "coordinates": [135.637728, 34.750592]}}, {"type": "Feature", "properties": {"名称": "市民体育館", "住所": "大阪府寝屋川市下木田町16-16", "電話番号": "(072)824-5858"}, "geometry": {"type": "Point", "coordinates": [135.621453, 34.747683]}}, {"type": "Feature", "properties": {"名称": "木屋小学校", "住所": "大阪府寝屋川市木屋元町1-1", "電話番号": "(072)833-2551"}, "geometry": {"type": "Point", "coordinates": [135.619077, 34.785721]}}, {"type": "Feature", "properties": {"名称": "石津小学校", "住所": "大阪府寝屋川市石津元町8-1", "電話番号": "(072)838-9312"}, "geometry": {"type": "Point", "coordinates": [135.620058, 34.776894]}}, {"type": "Feature", "properties": {"名称": "友呂岐中学校", "住所": "大阪府寝屋川市日新町2-25", "電話番号": "(072)835-9310"}, "geometry": {"type": "Point", "coordinates": [135.623719, 34.781074]}}, {"type": "Feature", "properties": {"名称": "木田小学校", "住所": "大阪府寝屋川市木田元宮1-17-1", "電話番号": "(072)825-9010"}, "geometry": {"type": "Point", "coordinates": [135.62192, 34.752725]}}, {"type": "Feature", "properties": {"名称": "中木田中学校", "住所": "大阪府寝屋川市中木田町7-1", "電話番号": "(072)825-9011"}, "geometry": {"type": "Point", "coordinates": [135.621678, 34.757958]}}, {"type": "Feature", "properties": {"名称": "西南コミュニティセンター", "住所": "大阪府寝屋川市高柳5-28-1", "電話番号": "(072)830-2211"}, "geometry": {"type": "Point", "coordinates": [135.605335, 34.764834]}}, {"type": "Feature", "properties": {"名称": "ふれあいセンター", "住所": "大阪府寝屋川市木田町11-20", "電話番号": "(072)820-0010"}, "geometry": {"type": "Point", "coordinates": [135.62235, 34.759972]}}, {"type": "Feature", "properties": {"名称": "保健福祉センター", "住所": "大阪府寝屋川市八坂町28-7", "電話番号": "(072)829-7771"}, "geometry": {"type": "Point", "coordinates": [135.625357, 34.767119]}}, {"type": "Feature", "properties": {"名称": "地域交流センター(アルカスホール)", "住所": "大阪府寝屋川市早子町12-21", "電話番号": "(072)821-1240"}, "geometry": {"type": "Point", "coordinates": [135.631566, 34.765666]}}, {"type": "Feature", "properties": {"名称": "上下水道局", "住所": "大阪府寝屋川市本町15-1", "電話番号": "(072)824-1181"}, "geometry": {"type": "Point", "coordinates": [135.631489, 34.763025]}}, {"type": "Feature", "properties": {"名称": "消防本部(消防署)", "住所": "大阪府寝屋川市池田2-11-73", "電話番号": "(072)828-0119"}, "geometry": {"type": "Point", "coordinates": [135.614601, 34.777085]}}, {"type": "Feature", "properties": {"名称": "中央公民館", "住所": "大阪府寝屋川市本町23-1", "電話番号": "(072)824-1181"}, "geometry": {"type": "Point", "coordinates": [135.632289, 34.763297]}}, {"type": "Feature", "properties": {"名称": "教育委員会", "住所": "大阪府寝屋川市本町23-1", "電話番号": "(072)824-1181"}, "geometry": {"type": "Point", "coordinates": [135.632289, 34.763297]}}]}